CCSDS_OMM_VERS = 2.0
CREATION_DATE  = 
ORIGINATOR     = 

OBJECT_NAME    = QIANFAN-99
OBJECT_ID      = 2025-233J
CENTER_NAME    = EARTH
REF_FRAME      = TEME
TIME_SYSTEM    = UTC
MEAN_ELEMENT_THEORY = SGP/SGP4

EPOCH          = 2025-11-12T07:13:28.606656
MEAN_MOTION    = 14.26215987
ECCENTRICITY   = .00159894
INCLINATION    = 88.9957
RA_OF_ASC_NODE = 65.5344
ARG_OF_PERICENTER = 130.3115
MEAN_ANOMALY   = 229.9478

EPHEMERIS_TYPE = 0
CLASSIFICATION_TYPE = U
NORAD_CAT_ID   = 66041
ELEMENT_SET_NO = 999
REV_AT_EPOCH   = 370
BSTAR          = .57407935E-3
MEAN_MOTION_DOT = .1391E-4
MEAN_MOTION_DDOT = 0

CCSDS_OMM_VERS = 2.0
CREATION_DATE  = 
ORIGINATOR     = 

OBJECT_NAME    = QIANFAN-100
OBJECT_ID      = 2025-233K
CENTER_NAME    = EARTH
REF_FRAME      = TEME
TIME_SYSTEM    = UTC
MEAN_ELEMENT_THEORY = SGP/SGP4

EPOCH          = 2025-11-12T07:13:15.272544
MEAN_MOTION    = 14.26231601
ECCENTRICITY   = .00164481
INCLINATION    = 88.9957
RA_OF_ASC_NODE = 65.5345
ARG_OF_PERICENTER = 131.8583
MEAN_ANOMALY   = 228.4017

EPHEMERIS_TYPE = 0
CLASSIFICATION_TYPE = U
NORAD_CAT_ID   = 66042
ELEMENT_SET_NO = 999
REV_AT_EPOCH   = 370
BSTAR          = .58441563E-3
MEAN_MOTION_DOT = .1416E-4
MEAN_MOTION_DDOT = 0

CCSDS_OMM_VERS = 2.0
CREATION_DATE  = 
ORIGINATOR     = 

OBJECT_NAME    = QIANFAN-101
OBJECT_ID      = 2025-233L
CENTER_NAME    = EARTH
REF_FRAME      = TEME
TIME_SYSTEM    = UTC
MEAN_ELEMENT_THEORY = SGP/SGP4

EPOCH          = 2025-11-12T07:06:37.470528
MEAN_MOTION    = 14.26644317
ECCENTRICITY   = .00164672
INCLINATION    = 88.9958
RA_OF_ASC_NODE = 65.5338
ARG_OF_PERICENTER = 130.0397
MEAN_ANOMALY   = 230.2245

EPHEMERIS_TYPE = 0
CLASSIFICATION_TYPE = U
NORAD_CAT_ID   = 66043
ELEMENT_SET_NO = 999
REV_AT_EPOCH   = 370
BSTAR          = .30249238E-3
MEAN_MOTION_DOT = .746E-5
MEAN_MOTION_DDOT = 0

CCSDS_OMM_VERS = 2.0
CREATION_DATE  = 
ORIGINATOR     = 

OBJECT_NAME    = QIANFAN-102
OBJECT_ID      = 2025-233M
CENTER_NAME    = EARTH
REF_FRAME      = TEME
TIME_SYSTEM    = UTC
MEAN_ELEMENT_THEORY = SGP/SGP4

EPOCH          = 2025-11-12T07:13:04.186560
MEAN_MOTION    = 14.26236381
ECCENTRICITY   = .00168194
INCLINATION    = 88.9957
RA_OF_ASC_NODE = 65.5343
ARG_OF_PERICENTER = 131.9182
MEAN_ANOMALY   = 228.3449

EPHEMERIS_TYPE = 0
CLASSIFICATION_TYPE = U
NORAD_CAT_ID   = 66044
ELEMENT_SET_NO = 999
REV_AT_EPOCH   = 370
BSTAR          = .60243018E-3
MEAN_MOTION_DOT = .146E-4
MEAN_MOTION_DDOT = 0

CCSDS_OMM_VERS = 2.0
CREATION_DATE  = 
ORIGINATOR     = 

OBJECT_NAME    = QIANFAN-103
OBJECT_ID      = 2025-233N
CENTER_NAME    = EARTH
REF_FRAME      = TEME
TIME_SYSTEM    = UTC
MEAN_ELEMENT_THEORY = SGP/SGP4

EPOCH          = 2025-11-12T07:12:25.615008
MEAN_MOTION    = 14.26265484
ECCENTRICITY   = .00161947
INCLINATION    = 88.9957
RA_OF_ASC_NODE = 65.5345
ARG_OF_PERICENTER = 130.8201
MEAN_ANOMALY   = 229.4400

EPHEMERIS_TYPE = 0
CLASSIFICATION_TYPE = U
NORAD_CAT_ID   = 66045
ELEMENT_SET_NO = 999
REV_AT_EPOCH   = 370
BSTAR          = .59281424E-3
MEAN_MOTION_DOT = .1437E-4
MEAN_MOTION_DDOT = 0

CCSDS_OMM_VERS = 2.0
CREATION_DATE  = 
ORIGINATOR     = 

OBJECT_NAME    = QIANFAN-104
OBJECT_ID      = 2025-233P
CENTER_NAME    = EARTH
REF_FRAME      = TEME
TIME_SYSTEM    = UTC
MEAN_ELEMENT_THEORY = SGP/SGP4

EPOCH          = 2025-11-12T07:11:57.637824
MEAN_MOTION    = 14.26286392
ECCENTRICITY   = .00161983
INCLINATION    = 88.9957
RA_OF_ASC_NODE = 65.5344
ARG_OF_PERICENTER = 132.9872
MEAN_ANOMALY   = 227.2683

EPHEMERIS_TYPE = 0
CLASSIFICATION_TYPE = U
NORAD_CAT_ID   = 66046
ELEMENT_SET_NO = 999
REV_AT_EPOCH   = 370
BSTAR          = .60575075E-3
MEAN_MOTION_DOT = .1469E-4
MEAN_MOTION_DDOT = 0

CCSDS_OMM_VERS = 2.0
CREATION_DATE  = 
ORIGINATOR     = 

OBJECT_NAME    = QIANFAN-105
OBJECT_ID      = 2025-233Q
CENTER_NAME    = EARTH
REF_FRAME      = TEME
TIME_SYSTEM    = UTC
MEAN_ELEMENT_THEORY = SGP/SGP4

EPOCH          = 2025-11-12T07:10:59.803392
MEAN_MOTION    = 14.26344375
ECCENTRICITY   = .00163896
INCLINATION    = 88.9957
RA_OF_ASC_NODE = 65.5341
ARG_OF_PERICENTER = 133.0594
MEAN_ANOMALY   = 227.1975

EPHEMERIS_TYPE = 0
CLASSIFICATION_TYPE = U
NORAD_CAT_ID   = 66047
ELEMENT_SET_NO = 999
REV_AT_EPOCH   = 370
BSTAR          = .58442878E-3
MEAN_MOTION_DOT = .1419E-4
MEAN_MOTION_DDOT = 0

CCSDS_OMM_VERS = 2.0
CREATION_DATE  = 
ORIGINATOR     = 

OBJECT_NAME    = QIANFAN-106
OBJECT_ID      = 2025-233R
CENTER_NAME    = EARTH
REF_FRAME      = TEME
TIME_SYSTEM    = UTC
MEAN_ELEMENT_THEORY = SGP/SGP4

EPOCH          = 2025-11-12T07:11:09.110400
MEAN_MOTION    = 14.26327625
ECCENTRICITY   = .0016256
INCLINATION    = 88.9957
RA_OF_ASC_NODE = 65.5343
ARG_OF_PERICENTER = 132.7961
MEAN_ANOMALY   = 227.4603

EPHEMERIS_TYPE = 0
CLASSIFICATION_TYPE = U
NORAD_CAT_ID   = 66048
ELEMENT_SET_NO = 999
REV_AT_EPOCH   = 370
BSTAR          = .59032256E-3
MEAN_MOTION_DOT = .1433E-4
MEAN_MOTION_DDOT = 0

CCSDS_OMM_VERS = 2.0
CREATION_DATE  = 
ORIGINATOR     = 

OBJECT_NAME    = QIANFAN-107
OBJECT_ID      = 2025-233S
CENTER_NAME    = EARTH
REF_FRAME      = TEME
TIME_SYSTEM    = UTC
MEAN_ELEMENT_THEORY = SGP/SGP4

EPOCH          = 2025-11-12T07:10:39.228960
MEAN_MOTION    = 14.26356483
ECCENTRICITY   = .00170256
INCLINATION    = 88.9957
RA_OF_ASC_NODE = 65.5341
ARG_OF_PERICENTER = 130.9173
MEAN_ANOMALY   = 229.3499

EPHEMERIS_TYPE = 0
CLASSIFICATION_TYPE = U
NORAD_CAT_ID   = 66049
ELEMENT_SET_NO = 999
REV_AT_EPOCH   = 370
BSTAR          = .58303511E-3
MEAN_MOTION_DOT = .1416E-4
MEAN_MOTION_DDOT = 0

CCSDS_OMM_VERS = 2.0
CREATION_DATE  = 
ORIGINATOR     = 

OBJECT_NAME    = QIANFAN-108
OBJECT_ID      = 2025-233T
CENTER_NAME    = EARTH
REF_FRAME      = TEME
TIME_SYSTEM    = UTC
MEAN_ELEMENT_THEORY = SGP/SGP4

EPOCH          = 2025-11-12T07:10:11.247456
MEAN_MOTION    = 14.26369317
ECCENTRICITY   = .00170117
INCLINATION    = 88.9957
RA_OF_ASC_NODE = 65.5339
ARG_OF_PERICENTER = 132.5547
MEAN_ANOMALY   = 227.7086

EPHEMERIS_TYPE = 0
CLASSIFICATION_TYPE = U
NORAD_CAT_ID   = 66050
ELEMENT_SET_NO = 999
REV_AT_EPOCH   = 370
BSTAR          = .57093742E-3
MEAN_MOTION_DOT = .1388E-4
MEAN_MOTION_DDOT = 0

CCSDS_OMM_VERS = 2.0
CREATION_DATE  = 
ORIGINATOR     = 

OBJECT_NAME    = CZ-6A R/B
OBJECT_ID      = 2025-233U
CENTER_NAME    = EARTH
REF_FRAME      = TEME
TIME_SYSTEM    = UTC
MEAN_ELEMENT_THEORY = SGP/SGP4

EPOCH          = 2025-11-12T07:19:00.162336
MEAN_MOTION    = 14.57022580
ECCENTRICITY   = .00849862
INCLINATION    = 89.0296
RA_OF_ASC_NODE = 65.4501
ARG_OF_PERICENTER = 31.2050
MEAN_ANOMALY   = 329.4166

EPHEMERIS_TYPE = 0
CLASSIFICATION_TYPE = U
NORAD_CAT_ID   = 66051
ELEMENT_SET_NO = 999
REV_AT_EPOCH   = 378
BSTAR          = .16834842E-3
MEAN_MOTION_DOT = .813E-5
MEAN_MOTION_DDOT = 0

CCSDS_OMM_VERS = 2.0
CREATION_DATE  = 
ORIGINATOR     = 

OBJECT_NAME    = 2025-234A
OBJECT_ID      = 2025-234A
CENTER_NAME    = EARTH
REF_FRAME      = TEME
TIME_SYSTEM    = UTC
MEAN_ELEMENT_THEORY = SGP/SGP4

EPOCH          = 2025-11-12T06:03:21.201408
MEAN_MOTION    = 15.23020077
ECCENTRICITY   = .00146555
INCLINATION    = 97.4602
RA_OF_ASC_NODE = 21.7375
ARG_OF_PERICENTER = 200.7940
MEAN_ANOMALY   = 159.2702

EPHEMERIS_TYPE = 0
CLASSIFICATION_TYPE = U
NORAD_CAT_ID   = 66053
ELEMENT_SET_NO = 999
REV_AT_EPOCH   = 367
BSTAR          = .31801644E-2
MEAN_MOTION_DOT = .75664E-3
MEAN_MOTION_DDOT = 0

