QIANFAN-99              
1 66041U 25233J   25316.30102554  .00001391  00000+0  57408-3 0  9999
2 66041  88.9957  65.5344 0015989 130.3115 229.9478 14.26215987  3704
QIANFAN-100             
1 66042U 25233K   25316.30087121  .00001416  00000+0  58442-3 0  9999
2 66042  88.9957  65.5345 0016448 131.8583 228.4017 14.26231601  3706
QIANFAN-101             
1 66043U 25233L   25316.29626702  .00000746  00000+0  30249-3 0  9992
2 66043  88.9958  65.5338 0016467 130.0397 230.2245 14.26644317  3701
QIANFAN-102             
1 66044U 25233M   25316.30074290  .00001460  00000+0  60243-3 0  9995
2 66044  88.9957  65.5343 0016819 131.9182 228.3449 14.26236381  3702
QIANFAN-103             
1 66045U 25233N   25316.30029647  .00001437  00000+0  59281-3 0  9996
2 66045  88.9957  65.5345 0016194 130.8201 229.4400 14.26265484  3706
QIANFAN-104             
1 66046U 25233P   25316.29997266  .00001469  00000+0  60575-3 0  9999
2 66046  88.9957  65.5344 0016198 132.9872 227.2683 14.26286392  3707
QIANFAN-105             
1 66047U 25233Q   25316.29930328  .00001419  00000+0  58443-3 0  9992
2 66047  88.9957  65.5341 0016389 133.0594 227.1975 14.26344375  3709
QIANFAN-106             
1 66048U 25233R   25316.29941100  .00001433  00000+0  59032-3 0  9994
2 66048  88.9957  65.5343 0016256 132.7961 227.4603 14.26327625  3709
QIANFAN-107             
1 66049U 25233S   25316.29906515  .00001416  00000+0  58304-3 0  9998
2 66049  88.9957  65.5341 0017025 130.9173 229.3499 14.26356483  3706
QIANFAN-108             
1 66050U 25233T   25316.29874129  .00001388  00000+0  57094-3 0  9998
2 66050  88.9957  65.5339 0017011 132.5547 227.7086 14.26369317  3707
CZ-6A R/B               
1 66051U 25233U   25316.30486299  .00000813  00000+0  16835-3 0  9998
2 66051  89.0296  65.4501 0084986  31.2050 329.4166 14.57022580  3784
2025-234A               
1 66053U 25234A   25316.25232872  .00075664  00000+0  31802-2 0  9997
2 66053  97.4602  21.7375 0014655 200.7940 159.2702 15.23020077  3677
